{
  "norad_id": 67115,
  "name": "STARLINK-35892",
  "history": [
    {
      "epoch": "2026-03-28T14:48:48.801600",
      "apogee_km": 483.13058732885565,
      "perigee_km": 482.5076125149826,
      "latitude_deg": -42.97829919767386,
      "longitude_deg": -129.245775999967,
      "semi_major_axis_km": 6860.956099921918,
      "eccentricity": 4.54e-05,
      "inclination_deg": 43.0012,
      "raan_deg": 61.8693,
      "arg_perigee_deg": 249.289,
      "mean_anomaly_deg": 110.7913,
      "mean_motion_rev_day": 15.27656813
    }
  ]
}